CCSDS_OMM_VERS = 2.0
CREATION_DATE  = 
ORIGINATOR     = 

OBJECT_NAME    = IDEFIX & ARIANE 42P R/B
OBJECT_ID      = 2002-021B
CENTER_NAME    = EARTH
REF_FRAME      = TEME
TIME_SYSTEM    = UTC
MEAN_ELEMENT_THEORY = SGP/SGP4

EPOCH          = 2026-01-17T05:51:09.396000
MEAN_MOTION    = 14.30980276
ECCENTRICITY   = .00116216
INCLINATION    = 98.5821
RA_OF_ASC_NODE = 316.4814
ARG_OF_PERICENTER = 344.6788
MEAN_ANOMALY   = 15.4042

EPHEMERIS_TYPE = 0
CLASSIFICATION_TYPE = U
NORAD_CAT_ID   = 27422
ELEMENT_SET_NO = 999
REV_AT_EPOCH   = 23666
BSTAR          = .10287872E-3
MEAN_MOTION_DOT = .227E-5
MEAN_MOTION_DDOT = 0

CCSDS_OMM_VERS = 2.0
CREATION_DATE  = 
ORIGINATOR     = 

OBJECT_NAME    = AQUA
OBJECT_ID      = 2002-022A
CENTER_NAME    = EARTH
REF_FRAME      = TEME
TIME_SYSTEM    = UTC
MEAN_ELEMENT_THEORY = SGP/SGP4

EPOCH          = 2026-01-17T06:59:47.363424
MEAN_MOTION    = 14.61825797
ECCENTRICITY   = .00020111
INCLINATION    = 98.4085
RA_OF_ASC_NODE = 343.7574
ARG_OF_PERICENTER = 75.4099
MEAN_ANOMALY   = 30.6811

EPHEMERIS_TYPE = 0
CLASSIFICATION_TYPE = U
NORAD_CAT_ID   = 27424
ELEMENT_SET_NO = 999
REV_AT_EPOCH   = 26122
BSTAR          = .17840841E-3
MEAN_MOTION_DOT = .842E-5
MEAN_MOTION_DDOT = 0

CCSDS_OMM_VERS = 2.0
CREATION_DATE  = 
ORIGINATOR     = 

OBJECT_NAME    = CZ-4B R/B
OBJECT_ID      = 2002-024C
CENTER_NAME    = EARTH
REF_FRAME      = TEME
TIME_SYSTEM    = UTC
MEAN_ELEMENT_THEORY = SGP/SGP4

EPOCH          = 2026-01-17T03:30:51.310944
MEAN_MOTION    = 14.14536070
ECCENTRICITY   = .00504066
INCLINATION    = 98.8945
RA_OF_ASC_NODE = 70.7855
ARG_OF_PERICENTER = 168.3845
MEAN_ANOMALY   = 213.5003

EPHEMERIS_TYPE = 0
CLASSIFICATION_TYPE = U
NORAD_CAT_ID   = 27432
ELEMENT_SET_NO = 999
REV_AT_EPOCH   = 22195
BSTAR          = .41353757E-4
MEAN_MOTION_DOT = .36E-6
MEAN_MOTION_DDOT = 0

CCSDS_OMM_VERS = 2.0
CREATION_DATE  = 
ORIGINATOR     = 

OBJECT_NAME    = MIDORI II (ADEOS-II)
OBJECT_ID      = 2002-056A
CENTER_NAME    = EARTH
REF_FRAME      = TEME
TIME_SYSTEM    = UTC
MEAN_ELEMENT_THEORY = SGP/SGP4

EPOCH          = 2026-01-17T06:42:22.784832
MEAN_MOTION    = 14.29236614
ECCENTRICITY   = .00017704
INCLINATION    = 98.7686
RA_OF_ASC_NODE = 335.4320
ARG_OF_PERICENTER = 115.1110
MEAN_ANOMALY   = 245.0256

EPHEMERIS_TYPE = 0
CLASSIFICATION_TYPE = U
NORAD_CAT_ID   = 27597
ELEMENT_SET_NO = 999
REV_AT_EPOCH   = 20295
BSTAR          = .11190339E-3
MEAN_MOTION_DOT = .239E-5
MEAN_MOTION_DDOT = 0

CCSDS_OMM_VERS = 2.0
CREATION_DATE  = 
ORIGINATOR     = 

OBJECT_NAME    = H-2A R/B
OBJECT_ID      = 2002-056E
CENTER_NAME    = EARTH
REF_FRAME      = TEME
TIME_SYSTEM    = UTC
MEAN_ELEMENT_THEORY = SGP/SGP4

EPOCH          = 2026-01-17T02:58:46.825248
MEAN_MOTION    = 14.33712924
ECCENTRICITY   = .00694995
INCLINATION    = 98.3113
RA_OF_ASC_NODE = 339.4825
ARG_OF_PERICENTER = 316.0857
MEAN_ANOMALY   = 53.9500

EPHEMERIS_TYPE = 0
CLASSIFICATION_TYPE = U
NORAD_CAT_ID   = 27601
ELEMENT_SET_NO = 999
REV_AT_EPOCH   = 20672
BSTAR          = .11495274E-3
MEAN_MOTION_DOT = .285E-5
MEAN_MOTION_DDOT = 0

CCSDS_OMM_VERS = 2.0
CREATION_DATE  = 
ORIGINATOR     = 

OBJECT_NAME    = CZ-4B R/B
OBJECT_ID      = 2003-049C
CENTER_NAME    = EARTH
REF_FRAME      = TEME
TIME_SYSTEM    = UTC
MEAN_ELEMENT_THEORY = SGP/SGP4

EPOCH          = 2026-01-17T05:16:00.768576
MEAN_MOTION    = 14.54950698
ECCENTRICITY   = .00488228
INCLINATION    = 98.6817
RA_OF_ASC_NODE = 10.1301
ARG_OF_PERICENTER = 29.9924
MEAN_ANOMALY   = 330.4053

EPHEMERIS_TYPE = 0
CLASSIFICATION_TYPE = U
NORAD_CAT_ID   = 28059
ELEMENT_SET_NO = 999
REV_AT_EPOCH   = 17911
BSTAR          = .10909679E-3
MEAN_MOTION_DOT = .425E-5
MEAN_MOTION_DDOT = 0

CCSDS_OMM_VERS = 2.0
CREATION_DATE  = 
ORIGINATOR     = 

OBJECT_NAME    = CZ-2C R/B
OBJECT_ID      = 2004-012C
CENTER_NAME    = EARTH
REF_FRAME      = TEME
TIME_SYSTEM    = UTC
MEAN_ELEMENT_THEORY = SGP/SGP4

EPOCH          = 2026-01-17T03:37:07.520736
MEAN_MOTION    = 15.58563877
ECCENTRICITY   = .00171495
INCLINATION    = 97.7361
RA_OF_ASC_NODE = 77.7686
ARG_OF_PERICENTER = 138.4460
MEAN_ANOMALY   = 221.8102

EPHEMERIS_TYPE = 0
CLASSIFICATION_TYPE = U
NORAD_CAT_ID   = 28222
ELEMENT_SET_NO = 999
REV_AT_EPOCH   = 19623
BSTAR          = .54458983E-3
MEAN_MOTION_DOT = .41983E-3
MEAN_MOTION_DDOT = 0

CCSDS_OMM_VERS = 2.0
CREATION_DATE  = 
ORIGINATOR     = 

OBJECT_NAME    = SL-16 R/B
OBJECT_ID      = 2004-021B
CENTER_NAME    = EARTH
REF_FRAME      = TEME
TIME_SYSTEM    = UTC
MEAN_ELEMENT_THEORY = SGP/SGP4

EPOCH          = 2026-01-17T06:15:49.217184
MEAN_MOTION    = 14.14592677
ECCENTRICITY   = .00029169
INCLINATION    = 71.0030
RA_OF_ASC_NODE = 340.4199
ARG_OF_PERICENTER = 139.8201
MEAN_ANOMALY   = 220.3137

EPHEMERIS_TYPE = 0
CLASSIFICATION_TYPE = U
NORAD_CAT_ID   = 28353
ELEMENT_SET_NO = 999
REV_AT_EPOCH   = 11556
BSTAR          = -.24955284E-4
MEAN_MOTION_DOT = -.96E-6
MEAN_MOTION_DDOT = 0

CCSDS_OMM_VERS = 2.0
CREATION_DATE  = 
ORIGINATOR     = 

OBJECT_NAME    = CZ-4B R/B
OBJECT_ID      = 2004-035C
CENTER_NAME    = EARTH
REF_FRAME      = TEME
TIME_SYSTEM    = UTC
MEAN_ELEMENT_THEORY = SGP/SGP4

EPOCH          = 2026-01-17T01:30:06.516288
MEAN_MOTION    = 15.28020735
ECCENTRICITY   = .00336626
INCLINATION    = 97.3572
RA_OF_ASC_NODE = 51.9440
ARG_OF_PERICENTER = 149.3074
MEAN_ANOMALY   = 211.0144

EPHEMERIS_TYPE = 0
CLASSIFICATION_TYPE = U
NORAD_CAT_ID   = 28415
ELEMENT_SET_NO = 999
REV_AT_EPOCH   = 17202
BSTAR          = .26592158E-3
MEAN_MOTION_DOT = .7315E-4
MEAN_MOTION_DDOT = 0

CCSDS_OMM_VERS = 2.0
CREATION_DATE  = 
ORIGINATOR     = 

OBJECT_NAME    = CZ-2C R/B
OBJECT_ID      = 2004-046B
CENTER_NAME    = EARTH
REF_FRAME      = TEME
TIME_SYSTEM    = UTC
MEAN_ELEMENT_THEORY = SGP/SGP4

EPOCH          = 2026-01-17T07:10:16.486752
MEAN_MOTION    = 14.26966626
ECCENTRICITY   = .01385631
INCLINATION    = 98.2002
RA_OF_ASC_NODE = 295.4710
ARG_OF_PERICENTER = 307.2168
MEAN_ANOMALY   = 51.6435

EPHEMERIS_TYPE = 0
CLASSIFICATION_TYPE = U
NORAD_CAT_ID   = 28480
ELEMENT_SET_NO = 999
REV_AT_EPOCH   = 10117
BSTAR          = .6883538E-4
MEAN_MOTION_DOT = .143E-5
MEAN_MOTION_DDOT = 0

CCSDS_OMM_VERS = 2.0
CREATION_DATE  = 
ORIGINATOR     = 

OBJECT_NAME    = ARIANE 5 R/B
OBJECT_ID      = 2004-049H
CENTER_NAME    = EARTH
REF_FRAME      = TEME
TIME_SYSTEM    = UTC
MEAN_ELEMENT_THEORY = SGP/SGP4

EPOCH          = 2026-01-17T00:37:41.066400
MEAN_MOTION    = 14.85124685
ECCENTRICITY   = .00848219
INCLINATION    = 98.2548
RA_OF_ASC_NODE = 183.5800
ARG_OF_PERICENTER = 157.8012
MEAN_ANOMALY   = 202.6909

EPHEMERIS_TYPE = 0
CLASSIFICATION_TYPE = U
NORAD_CAT_ID   = 28499
ELEMENT_SET_NO = 999
REV_AT_EPOCH   = 13812
BSTAR          = .11800379E-3
MEAN_MOTION_DOT = .1012E-4
MEAN_MOTION_DDOT = 0

CCSDS_OMM_VERS = 2.0
CREATION_DATE  = 
ORIGINATOR     = 

OBJECT_NAME    = CZ-2D R/B
OBJECT_ID      = 2005-024B
CENTER_NAME    = EARTH
REF_FRAME      = TEME
TIME_SYSTEM    = UTC
MEAN_ELEMENT_THEORY = SGP/SGP4

EPOCH          = 2026-01-17T00:01:11.203968
MEAN_MOTION    = 15.55562924
ECCENTRICITY   = .0004478
INCLINATION    = 97.3617
RA_OF_ASC_NODE = 30.4320
ARG_OF_PERICENTER = 182.4385
MEAN_ANOMALY   = 177.6849

EPHEMERIS_TYPE = 0
CLASSIFICATION_TYPE = U
NORAD_CAT_ID   = 28738
ELEMENT_SET_NO = 999
REV_AT_EPOCH   = 13173
BSTAR          = .48720772E-3
MEAN_MOTION_DOT = .33342E-3
MEAN_MOTION_DDOT = 0

