IDEFIX & ARIANE 42P R/B 
1 27422U 02021B   26017.24385875  .00000227  00000+0  10288-3 0  9992
2 27422  98.5821 316.4814 0011621 344.6788  15.4042 14.30980276236669
AQUA                    
1 27424U 02022A   26017.29152041  .00000842  00000+0  17841-3 0  9992
2 27424  98.4085 343.7574 0002011  75.4099  30.6811 14.61825797261228
CZ-4B R/B               
1 27432U 02024C   26017.14642721  .00000036  00000+0  41354-4 0  9998
2 27432  98.8945  70.7855 0050406 168.3845 213.5003 14.14536070221959
MIDORI II (ADEOS-II)    
1 27597U 02056A   26017.27943038  .00000239  00000+0  11190-3 0  9993
2 27597  98.7686 335.4320 0001770 115.1110 245.0256 14.29236614202951
H-2A R/B                
1 27601U 02056E   26017.12415307  .00000285  00000+0  11495-3 0  9995
2 27601  98.3113 339.4825 0069499 316.0857  53.9500 14.33712924206729
CZ-4B R/B               
1 28059U 03049C   26017.21945334  .00000425  00000+0  10910-3 0  9991
2 28059  98.6817  10.1301 0048822  29.9924 330.4053 14.54950698179118
CZ-2C R/B               
1 28222U 04012C   26017.15078149  .00041983  00000+0  54459-3 0  9998
2 28222  97.7361  77.7686 0017149 138.4460 221.8102 15.58563877196232
SL-16 R/B               
1 28353U 04021B   26017.26098631 -.00000096  00000+0 -24955-4 0  9994
2 28353  71.0030 340.4199 0002916 139.8201 220.3137 14.14592677115568
CZ-4B R/B               
1 28415U 04035C   26017.06257542  .00007315  00000+0  26592-3 0  9991
2 28415  97.3572  51.9440 0033662 149.3074 211.0144 15.28020735172024
CZ-2C R/B               
1 28480U 04046B   26017.29880193  .00000143  00000+0  68835-4 0  9993
2 28480  98.2002 295.4710 0138563 307.2168  51.6435 14.26966626101178
ARIANE 5 R/B            
1 28499U 04049H   26017.02616975  .00001012  00000+0  11800-3 0  9997
2 28499  98.2548 183.5800 0084821 157.8012 202.6909 14.85124685138129
CZ-2D R/B               
1 28738U 05024B   26017.00082412  .00033342  00000+0  48721-3 0  9991
2 28738  97.3617  30.4320 0004478 182.4385 177.6849 15.55562924131730
